[{"OBJECT_ID":"2015-054B","OBJECT_NAME":"ARSAT 2","NORAD_CAT_ID":"40941","OBJECT_TYPE":"PAYLOAD","PERIOD":"1436.108","INCLINATION":"0.0388","APOGEE":"35792.968","PERIGEE":"35780.673","ECCENTRICITY":"0.0001458","MEAN_MOTION":"1.00270985","TLE_LINE1":"1 40941U 15054B   16238.29728104 -.00000251 +00000-0 +00000-0 0  9995","TLE_LINE2":"2 40941 000.0388 297.0810 0001458 242.6629 180.2507 01.00270985003407","LAUNCH_DATE":"2015-09-30","LAUNCH_SITE":"FRENCH GUIANA","OWNER":"ARGENTINA","ORBIT_TYPE":"Geosynchronous","OPERATIONAL_STATUS":"Operational","satInfo":{"lng":-98.946062697842,"lat":-1.4207375892532232,"elevation":-9.957502316636564,"azimuth":53.94606269784197,"range":42804.759883854465,"height":35794.77563840851,"velocity":3.074509465318806},"x":-341.4863738553438,"y":51.551256340465244,"dx":-0.47810037180142284,"dy":-3.0371085734326773,"maxAlt":341.8399614679823,"minAlt":341.7218838153833},{"OBJECT_ID":"2015-060A","OBJECT_NAME":"TURKSAT 4B","NORAD_CAT_ID":"40984","OBJECT_TYPE":"PAYLOAD","PERIOD":"1436.042","INCLINATION":"0.0264","APOGEE":"35795.474","PERIGEE":"35775.590","ECCENTRICITY":"0.0002358","MEAN_MOTION":"1.00275583","TLE_LINE1":"1 40984U 15060A   16238.93158790 +.00000086 +00000-0 +00000-0 0  9993","TLE_LINE2":"2 40984 000.0264 263.1935 0002358 257.4110 199.3978 01.00275583003196","LAUNCH_DATE":"2015-10-16","LAUNCH_SITE":"TYURATAM MISSILE AND SPACE COMPLEX","OWNER":"TURKEY","ORBIT_TYPE":"Geosynchronous","OPERATIONAL_STATUS":"Operational","satInfo":{"lng":99.23995938390898,"lat":2.2563165061510624,"elevation":-6.362667585996214,"azimuth":215.760040616091,"range":42397.89477545271,"height":35791.26187630408,"velocity":3.0742079410107848},"x":337.3635275190676,"y":53.28699548297233,"dx":-0.4936243397340926,"dy":3.0343186180419237,"maxAlt":341.8640283730179,"minAlt":341.6730681416817},{"OBJECT_ID":"2015-065B","OBJECT_NAME":"BADR 7","NORAD_CAT_ID":"41029","OBJECT_TYPE":"PAYLOAD","PERIOD":"1436.084","INCLINATION":"0.0619","APOGEE":"35805.464","PERIGEE":"35767.229","ECCENTRICITY":"0.0004534","MEAN_MOTION":"1.00272676","TLE_LINE1":"1 41029U 15065B   16238.00076053  .00000119  00000-0  00000+0 0  9994","TLE_LINE2":"2 41029   0.0619 260.3049 0004534 316.0179 143.6416  1.00272676  2986","LAUNCH_DATE":"2015-11-10","LAUNCH_SITE":"FRENCH GUIANA","OWNER":"ARAB SATELLITE COMMUNICATIONS ORGANIZATION","ORBIT_TYPE":"Geosynchronous","OPERATIONAL_STATUS":"Operational","satInfo":{"lng":63.8201418046658,"lat":1.956785384027198,"elevation":-6.664646182081523,"azimuth":251.1798581953342,"range":42392.61384624286,"height":35752.549672837464,"velocity":3.0762049147141135},"x":306.2279864005,"y":-153.39134872631942,"dx":1.3571920847551042,"dy":2.76062788553426,"maxAlt":341.9599694669149,"minAlt":341.5927714964292},{"OBJECT_ID":"2015-068A","OBJECT_NAME":"TELSTAR 12V","NORAD_CAT_ID":"41036","OBJECT_TYPE":"PAYLOAD","PERIOD":"1436.098","INCLINATION":"0.0119","APOGEE":"35795.513","PERIGEE":"35777.737","ECCENTRICITY":"0.0002108","MEAN_MOTION":"1.00271683","TLE_LINE1":"1 41036U 15068A   16239.11171681 -.00000147  00000-0  00000+0 0  9993","TLE_LINE2":"2 41036   0.0119 156.8323 0002108  23.2155 179.9452  1.00271683  2810","LAUNCH_DATE":"2015-11-24","LAUNCH_SITE":"TANEGASHIMA SPACE CENTER","OWNER":"CANADA","ORBIT_TYPE":"Geosynchronous","OPERATIONAL_STATUS":"Operational","satInfo":{"lng":-139.59547438486683,"lat":-0.6526137864998477,"elevation":-9.215877059950744,"azimuth":94.59547438486683,"range":42687.48304502595,"height":35761.06345509512,"velocity":3.075571558259097},"x":-224.51573859251354,"y":259.61893320406307,"dx":-2.342008104230167,"dy":-1.993524128194216,"maxAlt":341.8644029178289,"minAlt":341.69368731371344},{"OBJECT_ID":"2015-073A","OBJECT_NAME":"CHINASAT 1C","NORAD_CAT_ID":"41103","OBJECT_TYPE":"PAYLOAD","PERIOD":"1436.088","INCLINATION":"0.0473","APOGEE":"35794.215","PERIGEE":"35778.640","ECCENTRICITY":"0.0001847","MEAN_MOTION":"1.00272388","TLE_LINE1":"1 41103U 15073A   16238.99104907 -.00000179 +00000-0 +00000-0 0  9992","TLE_LINE2":"2 41103 000.0473 268.9641 0001847 292.8492 211.1296 01.00272388002754","LAUNCH_DATE":"2015-12-09","LAUNCH_SITE":"Xichang Space Center, China","OWNER":"PEOPLES REPUBLIC OF CHINA","ORBIT_TYPE":"Geosynchronous","OPERATIONAL_STATUS":"Operational","satInfo":{"lng":69.00764138890096,"lat":1.947282394515563,"elevation":-6.667447740665456,"azimuth":245.99235861109904,"range":42425.534653117706,"height":35784.78804441771,"velocity":3.074782609982948},"x":318.95162129177646,"y":-125.02182352445318,"dx":1.1015206907457498,"dy":2.870703792889917,"maxAlt":341.8519372982214,"minAlt":341.70235946664525},{"OBJECT_ID":"2015-074A","OBJECT_NAME":"ELEKTRO-L 2","NORAD_CAT_ID":"41105","OBJECT_TYPE":"PAYLOAD","PERIOD":"1436.077","INCLINATION":"0.061","APOGEE":"35792.755","PERIGEE":"35779.667","ECCENTRICITY":"0.0001552","MEAN_MOTION":"1.00273159","TLE_LINE1":"1 41105U 15074A   16239.11472117 -.00000125  00000-0  00000+0 0  9991","TLE_LINE2":"2 41105   0.0610  75.9193 0001552  81.5338 294.6017  1.00273159  2600","LAUNCH_DATE":"2015-12-11","LAUNCH_SITE":"TYURATAM MISSILE AND SPACE COMPLEX","OWNER":"COMMONWEALTH OF INDEPENDENT STATES","ORBIT_TYPE":"Geosynchronous","OPERATIONAL_STATUS":"Operational","satInfo":{"lng":74.50425542187651,"lat":-2.227555842523413,"elevation":-10.742718108878087,"azimuth":240.4957445781235,"range":42889.25268092721,"height":35791.2763113516,"velocity":3.0743449475188482},"x":329.32926305232337,"y":-93.73845304595544,"dx":0.8213629184047055,"dy":2.9625934268144816,"maxAlt":341.83791587709135,"minAlt":341.71222248000186},{"OBJECT_ID":"2015-074B","OBJECT_NAME":"FREGAT R/B","NORAD_CAT_ID":"41106","OBJECT_TYPE":"ROCKET BODY","PERIOD":"1399.484","INCLINATION":"0.017","APOGEE":"35816.810","PERIGEE":"34316.923","ECCENTRICITY":"0.0180949","MEAN_MOTION":"1.02895058","TLE_LINE1":"1 41106U 15074B   16239.13956060 -.00000069  00000-0  00000+0 0  9995","TLE_LINE2":"2 41106   0.0170 127.5667 0180949 222.7024   9.3714  1.02895058  2651","LAUNCH_DATE":"2015-12-11","LAUNCH_SITE":"TYURATAM MISSILE AND SPACE COMPLEX","OWNER":"COMMONWEALTH OF INDEPENDENT STATES","ORBIT_TYPE":"Unclassified","OPERATIONAL_STATUS":"N/A, derelict rocket body","satInfo":{"lng":42.49994113281726,"lat":0.1808301814708867,"elevation":-8.551426679269916,"azimuth":272.50005886718276,"range":41874.18115119557,"height":35030.72637714201,"velocity":3.103946903935056},"x":225.37977746940854,"y":-249.9442297047255,"dx":2.288471861440745,"dy":2.09699378202272,"maxAlt":342.06893319577927,"minAlt":327.66444876115344},{"OBJECT_ID":"2015-075B","OBJECT_NAME":"BREEZE-M R/B","NORAD_CAT_ID":"41122","OBJECT_TYPE":"ROCKET BODY","PERIOD":"1376.150","INCLINATION":"0.5937","APOGEE":"35941.651","PERIGEE":"33268.163","ECCENTRICITY":"0.032617","MEAN_MOTION":"1.04639694","TLE_LINE1":"1 41122U 15075B   16238.72501071 -.00000155 +00000-0 +00000-0 0  9993","TLE_LINE2":"2 41122 000.5937 098.7248 0326170 048.6641 214.6695 01.04639694002706","LAUNCH_DATE":"2015-12-13","LAUNCH_SITE":"TYURATAM MISSILE AND SPACE COMPLEX","OWNER":"COMMONWEALTH OF INDEPENDENT STATES","ORBIT_TYPE":"Unclassified","OPERATIONAL_STATUS":"N/A, derelict rocket body","satInfo":{"lng":-137.262480600064,"lat":1.1732466745418744,"elevation":-7.797635170695858,"azimuth":92.262480600064,"range":40765.484318899486,"height":34018.867023297586,"velocity":3.1636033057835116},"x":-223.62242347616942,"y":238.0514939010171,"dx":-2.3235728384142154,"dy":-2.146950195264918,"maxAlt":343.2678703432465,"minAlt":317.5924586074563},{"OBJECT_ID":"2015-082A","OBJECT_NAME":"EXPRESS AMU1","NORAD_CAT_ID":"41191","OBJECT_TYPE":"PAYLOAD","PERIOD":"1436.051","INCLINATION":"0.0081","APOGEE":"35796.912","PERIGEE":"35774.489","ECCENTRICITY":"0.0002659","MEAN_MOTION":"1.00274982","TLE_LINE1":"1 41191U 15082A   16238.61654050  .00000129  00000-0  00000+0 0  9990","TLE_LINE2":"2 41191   0.0081 144.6816 0002659  19.4054  68.2685  1.00274982  2585","LAUNCH_DATE":"2015-12-24","LAUNCH_SITE":"TYURATAM MISSILE AND SPACE COMPLEX","OWNER":"COMMONWEALTH OF INDEPENDENT STATES","ORBIT_TYPE":"Geosynchronous","OPERATIONAL_STATUS":"Operational","satInfo":{"lng":95.5514607700997,"lat":-0.7181769854000764,"elevation":-9.276651554138832,"azimuth":219.44853922990026,"range":42710.27688518008,"height":35776.8612619825,"velocity":3.074695744408702},"x":340.0737376148929,"y":31.333441314976767,"dx":-0.2974452627885575,"dy":3.0602745361045023,"maxAlt":341.87783851245973,"minAlt":341.66249445355555},{"OBJECT_ID":"2016-004A","OBJECT_NAME":"INTELSAT 29E","NORAD_CAT_ID":"41308","OBJECT_TYPE":"PAYLOAD","PERIOD":"1436.070","INCLINATION":"0.0415","APOGEE":"35794.689","PERIGEE":"35777.461","ECCENTRICITY":"0.0002043","MEAN_MOTION":"1.00273645","TLE_LINE1":"1 41308U 16004A   16237.21418434 -.00000306  00000-0  00000+0 0  9992","TLE_LINE2":"2 41308   0.0415 292.7806 0002043 225.1265 202.0981  1.00273645  2220","LAUNCH_DATE":"2016-01-27","LAUNCH_SITE":"FRENCH GUIANA","OWNER":"INTERNATIONAL TELECOMMUNICATIONS SATELLITE ORGANIZATION (INTELSAT)","ORBIT_TYPE":"Geosynchronous","OPERATIONAL_STATUS":"Operational","satInfo":{"lng":-51.572448425454766,"lat":-2.1524359195920177,"elevation":-10.671389761655451,"azimuth":6.572448425454743,"range":42872.83134971981,"height":35782.94234076886,"velocity":3.0751199633702018},"x":-271.11831993591534,"y":-215.49179747777174,"dx":1.911262581394481,"dy":-2.409032613743379,"maxAlt":341.8564894582322,"minAlt":341.6910366888971}]